ONEWEB-0703             
1 56724U 23068Q   26067.02592343  .00000152  00000+0  37004-3 0  9996
2 56724  87.8939 279.4045 0001428 127.3174 232.8086 13.15547962135956
ONEWEB-0721             
1 56725U 23068R   26067.13464199 -.00000002  00000+0 -39662-4 0  9995
2 56725  86.6760 117.7835 0001925 100.9957 259.1393 13.22462225144583
ONEWEB-0015             
1 61594U 24188A   26066.68217469  .00000556  00000+0  15316-2 0  9994
2 61594  87.8857  41.2773 0001439  67.1523 292.9757 13.11417858 71159
ONEWEB-0687             
1 61595U 24188B   26067.15973655 -.00000035  00000+0 -12208-3 0  9996
2 61595  87.9136  25.9464 0001932  64.3665 295.7666 13.17649285 72597
ONEWEB-0688             
1 61596U 24188C   26067.11248800 -.00000003  00000+0 -41617-4 0  9992
2 61596  87.9138  25.9553 0001203  36.6692 323.4521 13.17649761 72589
ONEWEB-0689             
1 61597U 24188D   26067.17385453 -.00000425  00000+0 -12357-2 0  9990
2 61597  87.8874  41.1193 0002098  76.4069 283.7293 13.11414925 71218
ONEWEB-0690             
1 61598U 24188E   26067.18402946 -.00000519  00000+0 -14997-2 0  9995
2 61598  87.8867  41.1377 0001685 106.0058 254.1255 13.11415677 71398
ONEWEB-0691             
1 61599U 24188F   26067.17894249 -.00000465  00000+0 -13467-2 0  9997
2 61599  87.8878  41.0389 0001626  70.5682 289.5621 13.11414758 71248
ONEWEB-0692             
1 61600U 24188G   26066.43632901  .00000145  00000+0  37390-3 0  9998
2 61600  87.8853  41.3191 0002706  88.2588 271.8850 13.11418006 71135
ONEWEB-0693             
1 61601U 24188H   26066.82054803  .00000033  00000+0  52713-4 0  9994
2 61601  87.9135  26.0346 0001329 105.0751 255.0528 13.17651321 72538
ONEWEB-0695             
1 61602U 24188J   26067.17555576 -.00000490  00000+0 -14171-2 0  9990
2 61602  87.8855  41.1628 0002367  78.9186 281.2208 13.11416010 71220
ONEWEB-0697             
1 61603U 24188K   26066.44481238  .00000427  00000+0  11678-2 0  9990
2 61603  87.8857  41.2981 0002594  89.7777 270.3648 13.11417263 71110
ONEWEB-0698             
1 61604U 24188L   26066.88053913 -.00000500  00000+0 -14461-2 0  9991
2 61604  87.8856  41.2265 0002580 108.5386 251.6023 13.11416523 71191
ONEWEB-0699             
1 61605U 24188M   26066.50733646  .00000409  00000+0  11344-2 0  9992
2 61605  87.8775  56.5092 0002437  94.0510 266.0896 13.10370653 69993
ONEWEB-0700             
1 61606U 24188N   26066.50899305  .00000286  00000+0  78303-3 0  9990
2 61606  87.8786  56.4034 0002536  84.3391 275.8026 13.10369936 69984
ONEWEB-0701             
1 61607U 24188P   26066.67829308 -.00000462  00000+0 -13587-2 0  9995
2 61607  87.8774  56.4750 0002636  93.8556 266.2873 13.10370526 70013
ONEWEB-0702             
1 61608U 24188Q   26066.46853501  .00000148  00000+0  38159-3 0  9997
2 61608  87.8871  41.1961 0002856  85.1765 274.9689 13.11416245 71154
