[{"OBJECT_NAME":"ONEWEB-0703","OBJECT_ID":"2023-068Q","EPOCH":"2026-03-08T00:37:19.784352","MEAN_MOTION":13.15547962,"ECCENTRICITY":0.0001428,"INCLINATION":87.8939,"RA_OF_ASC_NODE":279.4045,"ARG_OF_PERICENTER":127.3174,"MEAN_ANOMALY":232.8086,"EPHEMERIS_TYPE":0,"CLASSIFICATION_TYPE":"U","NORAD_CAT_ID":56724,"ELEMENT_SET_NO":999,"REV_AT_EPOCH":13595,"BSTAR":0.00037004,"MEAN_MOTION_DOT":1.52e-6,"MEAN_MOTION_DDOT":0},{"OBJECT_NAME":"ONEWEB-0721","OBJECT_ID":"2023-068R","EPOCH":"2026-03-08T03:13:53.067936","MEAN_MOTION":13.22462225,"ECCENTRICITY":0.0001925,"INCLINATION":86.676,"RA_OF_ASC_NODE":117.7835,"ARG_OF_PERICENTER":100.9957,"MEAN_ANOMALY":259.1393,"EPHEMERIS_TYPE":0,"CLASSIFICATION_TYPE":"U","NORAD_CAT_ID":56725,"ELEMENT_SET_NO":999,"REV_AT_EPOCH":14458,"BSTAR":-3.9662e-5,"MEAN_MOTION_DOT":-2.0e-8,"MEAN_MOTION_DDOT":0},{"OBJECT_NAME":"ONEWEB-0015","OBJECT_ID":"2024-188A","EPOCH":"2026-03-07T16:22:19.893216","MEAN_MOTION":13.11417858,"ECCENTRICITY":0.0001439,"INCLINATION":87.8857,"RA_OF_ASC_NODE":41.2773,"ARG_OF_PERICENTER":67.1523,"MEAN_ANOMALY":292.9757,"EPHEMERIS_TYPE":0,"CLASSIFICATION_TYPE":"U","NORAD_CAT_ID":61594,"ELEMENT_SET_NO":999,"REV_AT_EPOCH":7115,"BSTAR":0.0015315897,"MEAN_MOTION_DOT":5.56e-6,"MEAN_MOTION_DDOT":0},{"OBJECT_NAME":"ONEWEB-0687","OBJECT_ID":"2024-188B","EPOCH":"2026-03-08T03:50:01.237920","MEAN_MOTION":13.17649285,"ECCENTRICITY":0.0001932,"INCLINATION":87.9136,"RA_OF_ASC_NODE":25.9464,"ARG_OF_PERICENTER":64.3665,"MEAN_ANOMALY":295.7666,"EPHEMERIS_TYPE":0,"CLASSIFICATION_TYPE":"U","NORAD_CAT_ID":61595,"ELEMENT_SET_NO":999,"REV_AT_EPOCH":7259,"BSTAR":-0.00012208,"MEAN_MOTION_DOT":-3.5e-7,"MEAN_MOTION_DDOT":0},{"OBJECT_NAME":"ONEWEB-0688","OBJECT_ID":"2024-188C","EPOCH":"2026-03-08T02:41:58.963200","MEAN_MOTION":13.17649761,"ECCENTRICITY":0.0001203,"INCLINATION":87.9138,"RA_OF_ASC_NODE":25.9553,"ARG_OF_PERICENTER":36.6692,"MEAN_ANOMALY":323.4521,"EPHEMERIS_TYPE":0,"CLASSIFICATION_TYPE":"U","NORAD_CAT_ID":61596,"ELEMENT_SET_NO":999,"REV_AT_EPOCH":7258,"BSTAR":-4.1617e-5,"MEAN_MOTION_DOT":-3.0e-8,"MEAN_MOTION_DDOT":0},{"OBJECT_NAME":"ONEWEB-0689","OBJECT_ID":"2024-188D","EPOCH":"2026-03-08T04:10:21.031392","MEAN_MOTION":13.11414925,"ECCENTRICITY":0.0002098,"INCLINATION":87.8874,"RA_OF_ASC_NODE":41.1193,"ARG_OF_PERICENTER":76.4069,"MEAN_ANOMALY":283.7293,"EPHEMERIS_TYPE":0,"CLASSIFICATION_TYPE":"U","NORAD_CAT_ID":61597,"ELEMENT_SET_NO":999,"REV_AT_EPOCH":7121,"BSTAR":-0.0012357,"MEAN_MOTION_DOT":-4.25e-6,"MEAN_MOTION_DDOT":0},{"OBJECT_NAME":"ONEWEB-0690","OBJECT_ID":"2024-188E","EPOCH":"2026-03-08T04:25:00.145344","MEAN_MOTION":13.11415677,"ECCENTRICITY":0.0001685,"INCLINATION":87.8867,"RA_OF_ASC_NODE":41.1377,"ARG_OF_PERICENTER":106.0058,"MEAN_ANOMALY":254.1255,"EPHEMERIS_TYPE":0,"CLASSIFICATION_TYPE":"U","NORAD_CAT_ID":61598,"ELEMENT_SET_NO":999,"REV_AT_EPOCH":7139,"BSTAR":-0.0014997,"MEAN_MOTION_DOT":-5.19e-6,"MEAN_MOTION_DDOT":0},{"OBJECT_NAME":"ONEWEB-0691","OBJECT_ID":"2024-188F","EPOCH":"2026-03-08T04:17:40.631136","MEAN_MOTION":13.11414758,"ECCENTRICITY":0.0001626,"INCLINATION":87.8878,"RA_OF_ASC_NODE":41.0389,"ARG_OF_PERICENTER":70.5682,"MEAN_ANOMALY":289.5621,"EPHEMERIS_TYPE":0,"CLASSIFICATION_TYPE":"U","NORAD_CAT_ID":61599,"ELEMENT_SET_NO":999,"REV_AT_EPOCH":7124,"BSTAR":-0.0013467,"MEAN_MOTION_DOT":-4.65e-6,"MEAN_MOTION_DDOT":0},{"OBJECT_NAME":"ONEWEB-0692","OBJECT_ID":"2024-188G","EPOCH":"2026-03-07T10:28:18.826464","MEAN_MOTION":13.11418006,"ECCENTRICITY":0.0002706,"INCLINATION":87.8853,"RA_OF_ASC_NODE":41.3191,"ARG_OF_PERICENTER":88.2588,"MEAN_ANOMALY":271.885,"EPHEMERIS_TYPE":0,"CLASSIFICATION_TYPE":"U","NORAD_CAT_ID":61600,"ELEMENT_SET_NO":999,"REV_AT_EPOCH":7113,"BSTAR":0.00037390232,"MEAN_MOTION_DOT":1.45e-6,"MEAN_MOTION_DDOT":0},{"OBJECT_NAME":"ONEWEB-0693","OBJECT_ID":"2024-188H","EPOCH":"2026-03-07T19:41:35.349792","MEAN_MOTION":13.17651321,"ECCENTRICITY":0.00013298,"INCLINATION":87.9135,"RA_OF_ASC_NODE":26.0346,"ARG_OF_PERICENTER":105.0751,"MEAN_ANOMALY":255.0528,"EPHEMERIS_TYPE":0,"CLASSIFICATION_TYPE":"U","NORAD_CAT_ID":61601,"ELEMENT_SET_NO":999,"REV_AT_EPOCH":7253,"BSTAR":5.2712797e-5,"MEAN_MOTION_DOT":3.3e-7,"MEAN_MOTION_DDOT":0},{"OBJECT_NAME":"ONEWEB-0695","OBJECT_ID":"2024-188J","EPOCH":"2026-03-08T04:12:48.017664","MEAN_MOTION":13.1141601,"ECCENTRICITY":0.0002367,"INCLINATION":87.8855,"RA_OF_ASC_NODE":41.1628,"ARG_OF_PERICENTER":78.9186,"MEAN_ANOMALY":281.2208,"EPHEMERIS_TYPE":0,"CLASSIFICATION_TYPE":"U","NORAD_CAT_ID":61602,"ELEMENT_SET_NO":999,"REV_AT_EPOCH":7122,"BSTAR":-0.0014171,"MEAN_MOTION_DOT":-4.9e-6,"MEAN_MOTION_DDOT":0},{"OBJECT_NAME":"ONEWEB-0697","OBJECT_ID":"2024-188K","EPOCH":"2026-03-07T10:40:31.789632","MEAN_MOTION":13.11417263,"ECCENTRICITY":0.00025949,"INCLINATION":87.8857,"RA_OF_ASC_NODE":41.2981,"ARG_OF_PERICENTER":89.7777,"MEAN_ANOMALY":270.3648,"EPHEMERIS_TYPE":0,"CLASSIFICATION_TYPE":"U","NORAD_CAT_ID":61603,"ELEMENT_SET_NO":999,"REV_AT_EPOCH":7111,"BSTAR":0.0011678148,"MEAN_MOTION_DOT":4.27e-6,"MEAN_MOTION_DDOT":0},{"OBJECT_NAME":"ONEWEB-0698","OBJECT_ID":"2024-188L","EPOCH":"2026-03-07T21:07:58.580832","MEAN_MOTION":13.11416523,"ECCENTRICITY":0.00025805,"INCLINATION":87.8856,"RA_OF_ASC_NODE":41.2265,"ARG_OF_PERICENTER":108.5386,"MEAN_ANOMALY":251.6023,"EPHEMERIS_TYPE":0,"CLASSIFICATION_TYPE":"U","NORAD_CAT_ID":61604,"ELEMENT_SET_NO":999,"REV_AT_EPOCH":7119,"BSTAR":-0.0014461457,"MEAN_MOTION_DOT":-5.0e-6,"MEAN_MOTION_DDOT":0},{"OBJECT_NAME":"ONEWEB-0699","OBJECT_ID":"2024-188M","EPOCH":"2026-03-07T12:10:33.870144","MEAN_MOTION":13.10370653,"ECCENTRICITY":0.00024374,"INCLINATION":87.8775,"RA_OF_ASC_NODE":56.5092,"ARG_OF_PERICENTER":94.051,"MEAN_ANOMALY":266.0896,"EPHEMERIS_TYPE":0,"CLASSIFICATION_TYPE":"U","NORAD_CAT_ID":61605,"ELEMENT_SET_NO":999,"REV_AT_EPOCH":6999,"BSTAR":0.0011344353,"MEAN_MOTION_DOT":4.09e-6,"MEAN_MOTION_DDOT":0},{"OBJECT_NAME":"ONEWEB-0700","OBJECT_ID":"2024-188N","EPOCH":"2026-03-07T12:12:56.999520","MEAN_MOTION":13.10369936,"ECCENTRICITY":0.00025362,"INCLINATION":87.8786,"RA_OF_ASC_NODE":56.4034,"ARG_OF_PERICENTER":84.3391,"MEAN_ANOMALY":275.8026,"EPHEMERIS_TYPE":0,"CLASSIFICATION_TYPE":"U","NORAD_CAT_ID":61606,"ELEMENT_SET_NO":999,"REV_AT_EPOCH":6998,"BSTAR":0.000783034,"MEAN_MOTION_DOT":2.86e-6,"MEAN_MOTION_DDOT":0},{"OBJECT_NAME":"ONEWEB-0701","OBJECT_ID":"2024-188P","EPOCH":"2026-03-07T16:16:44.522112","MEAN_MOTION":13.10370526,"ECCENTRICITY":0.0002636,"INCLINATION":87.8774,"RA_OF_ASC_NODE":56.475,"ARG_OF_PERICENTER":93.8556,"MEAN_ANOMALY":266.2873,"EPHEMERIS_TYPE":0,"CLASSIFICATION_TYPE":"U","NORAD_CAT_ID":61607,"ELEMENT_SET_NO":999,"REV_AT_EPOCH":7001,"BSTAR":-0.0013586743,"MEAN_MOTION_DOT":-4.62e-6,"MEAN_MOTION_DDOT":0},{"OBJECT_NAME":"ONEWEB-0702","OBJECT_ID":"2024-188Q","EPOCH":"2026-03-07T11:14:41.424864","MEAN_MOTION":13.11416245,"ECCENTRICITY":0.00028564,"INCLINATION":87.8871,"RA_OF_ASC_NODE":41.1961,"ARG_OF_PERICENTER":85.1765,"MEAN_ANOMALY":274.9689,"EPHEMERIS_TYPE":0,"CLASSIFICATION_TYPE":"U","NORAD_CAT_ID":61608,"ELEMENT_SET_NO":999,"REV_AT_EPOCH":7115,"BSTAR":0.00038159362,"MEAN_MOTION_DOT":1.48e-6,"MEAN_MOTION_DDOT":0}]
